[
    {
        "OBJECT_NAME": "COSMOS 1594 [GLONASS]",
        "OBJECT_ID": "1984-095B",
        "EPOCH": "2025-03-03T06:15:06.346368",
        "MEAN_MOTION": 2.12636982,
        "ECCENTRICITY": 0.0004839,
        "INCLINATION": 64.5299,
        "RA_OF_ASC_NODE": 90.6794,
        "ARG_OF_PERICENTER": 196.8194,
        "MEAN_ANOMALY": 230.9752,
        "EPHEMERIS_TYPE": 0,
        "CLASSIFICATION_TYPE": "U",
        "NORAD_CAT_ID": 15260,
        "ELEMENT_SET_NO": 999,
        "REV_AT_EPOCH": 31447,
        "BSTAR": 0,
        "MEAN_MOTION_DOT": 2.8e-07,
        "MEAN_MOTION_DDOT": 0
    },
    {
        "OBJECT_NAME": "COSMOS 1595 [GLONASS]",
        "OBJECT_ID": "1984-095C",
        "EPOCH": "2025-03-02T14:43:43.031136",
        "MEAN_MOTION": 2.13101798,
        "ECCENTRICITY": 0.0048369,
        "INCLINATION": 64.5377,
        "RA_OF_ASC_NODE": 87.4481,
        "ARG_OF_PERICENTER": 218.2982,
        "MEAN_ANOMALY": 326.7233,
        "EPHEMERIS_TYPE": 0,
        "CLASSIFICATION_TYPE": "U",
        "NORAD_CAT_ID": 15261,
        "ELEMENT_SET_NO": 999,
        "REV_AT_EPOCH": 28947,
        "BSTAR": 0,
        "MEAN_MOTION_DOT": 3.2e-07,
        "MEAN_MOTION_DDOT": 0
    },
    {
        "OBJECT_NAME": "COSMOS 1650 [GLONASS]",
        "OBJECT_ID": "1985-037A",
        "EPOCH": "2025-03-03T07:28:37.429248",
        "MEAN_MOTION": 2.1310218,
        "ECCENTRICITY": 0.0032477,
        "INCLINATION": 64.6259,
        "RA_OF_ASC_NODE": 89.4413,
        "ARG_OF_PERICENTER": 26.6134,
        "MEAN_ANOMALY": 51.4825,
        "EPHEMERIS_TYPE": 0,
        "CLASSIFICATION_TYPE": "U",
        "NORAD_CAT_ID": 15697,
        "ELEMENT_SET_NO": 999,
        "REV_AT_EPOCH": 28631,
        "BSTAR": 0,
        "MEAN_MOTION_DOT": 2.7e-07,
        "MEAN_MOTION_DDOT": 0
    },
    {
        "OBJECT_NAME": "COSMOS 1651 [GLONASS]",
        "OBJECT_ID": "1985-037B",
        "EPOCH": "2025-03-03T07:58:58.335168",
        "MEAN_MOTION": 2.13123057,
        "ECCENTRICITY": 0.00146,
        "INCLINATION": 64.6151,
        "RA_OF_ASC_NODE": 89.0021,
        "ARG_OF_PERICENTER": 21.6142,
        "MEAN_ANOMALY": 61.1481,
        "EPHEMERIS_TYPE": 0,
        "CLASSIFICATION_TYPE": "U",
        "NORAD_CAT_ID": 15698,
        "ELEMENT_SET_NO": 999,
        "REV_AT_EPOCH": 30975,
        "BSTAR": 0,
        "MEAN_MOTION_DOT": 2.7e-07,
        "MEAN_MOTION_DDOT": 0
    },
    {
        "OBJECT_NAME": "COSMOS 1652 [GLONASS]",
        "OBJECT_ID": "1985-037C",
        "EPOCH": "2025-03-03T09:05:36.331008",
        "MEAN_MOTION": 2.13067318,
        "ECCENTRICITY": 0.0017995,
        "INCLINATION": 64.6099,
        "RA_OF_ASC_NODE": 89.285,
        "ARG_OF_PERICENTER": 24.1752,
        "MEAN_ANOMALY": 10.8387,
        "EPHEMERIS_TYPE": 0,
        "CLASSIFICATION_TYPE": "U",
        "NORAD_CAT_ID": 15699,
        "ELEMENT_SET_NO": 999,
        "REV_AT_EPOCH": 30963,
        "BSTAR": 0,
        "MEAN_MOTION_DOT": 2.6e-07,
        "MEAN_MOTION_DDOT": 0
    },
    {
        "OBJECT_NAME": "COSMOS 1710 [GLONASS]",
        "OBJECT_ID": "1985-118A",
        "EPOCH": "2025-02-25T08:52:16.234176",
        "MEAN_MOTION": 2.1310289,
        "ECCENTRICITY": 0.001195,
        "INCLINATION": 66.2496,
        "RA_OF_ASC_NODE": 339.997,
        "ARG_OF_PERICENTER": 207.8138,
        "MEAN_ANOMALY": 345.9312,
        "EPHEMERIS_TYPE": 0,
        "CLASSIFICATION_TYPE": "U",
        "NORAD_CAT_ID": 16396,
        "ELEMENT_SET_NO": 999,
        "REV_AT_EPOCH": 30496,
        "BSTAR": 0,
        "MEAN_MOTION_DOT": -5.7e-07,
        "MEAN_MOTION_DDOT": 0
    },
    {
        "OBJECT_NAME": "COSMOS 1711 [GLONASS]",
        "OBJECT_ID": "1985-118B",
        "EPOCH": "2025-03-03T09:08:09.202848",
        "MEAN_MOTION": 2.13101476,
        "ECCENTRICITY": 0.0008324,
        "INCLINATION": 66.2627,
        "RA_OF_ASC_NODE": 339.9998,
        "ARG_OF_PERICENTER": 192.289,
        "MEAN_ANOMALY": 266.7776,
        "EPHEMERIS_TYPE": 0,
        "CLASSIFICATION_TYPE": "U",
        "NORAD_CAT_ID": 16397,
        "ELEMENT_SET_NO": 999,
        "REV_AT_EPOCH": 30472,
        "BSTAR": 0,
        "MEAN_MOTION_DOT": -6.4e-07,
        "MEAN_MOTION_DDOT": 0
    },
    {
        "OBJECT_NAME": "COSMOS 1712 [GLONASS]",
        "OBJECT_ID": "1985-118C",
        "EPOCH": "2025-02-27T06:44:50.280864",
        "MEAN_MOTION": 2.12919819,
        "ECCENTRICITY": 0.0011047,
        "INCLINATION": 66.2574,
        "RA_OF_ASC_NODE": 340.7057,
        "ARG_OF_PERICENTER": 12.2871,
        "MEAN_ANOMALY": 134.1273,
        "EPHEMERIS_TYPE": 0,
        "CLASSIFICATION_TYPE": "U",
        "NORAD_CAT_ID": 16398,
        "ELEMENT_SET_NO": 999,
        "REV_AT_EPOCH": 30393,
        "BSTAR": 0,
        "MEAN_MOTION_DOT": -5.4e-07,
        "MEAN_MOTION_DDOT": 0
    },
    {
        "OBJECT_NAME": "COSMOS 1778 [GLONASS]",
        "OBJECT_ID": "1986-071A",
        "EPOCH": "2025-03-03T08:00:33.052032",
        "MEAN_MOTION": 2.13102144,
        "ECCENTRICITY": 0.0005104,
        "INCLINATION": 64.6293,
        "RA_OF_ASC_NODE": 88.4939,
        "ARG_OF_PERICENTER": 235.1661,
        "MEAN_ANOMALY": 200.2748,
        "EPHEMERIS_TYPE": 0,
        "CLASSIFICATION_TYPE": "U",
        "NORAD_CAT_ID": 16961,
        "ELEMENT_SET_NO": 999,
        "REV_AT_EPOCH": 29934,
        "BSTAR": 0,
        "MEAN_MOTION_DOT": 2.6e-07,
        "MEAN_MOTION_DDOT": 0
    },
    {
        "OBJECT_NAME": "COSMOS 1779 [GLONASS]",
        "OBJECT_ID": "1986-071B",
        "EPOCH": "2025-03-02T08:18:21.760416",
        "MEAN_MOTION": 2.1310282,
        "ECCENTRICITY": 0.0012234,
        "INCLINATION": 64.6319,
        "RA_OF_ASC_NODE": 88.5998,
        "ARG_OF_PERICENTER": 38.9547,
        "MEAN_ANOMALY": 49.1747,
        "EPHEMERIS_TYPE": 0,
        "CLASSIFICATION_TYPE": "U",
        "NORAD_CAT_ID": 16962,
        "ELEMENT_SET_NO": 999,
        "REV_AT_EPOCH": 29919,
        "BSTAR": 0,
        "MEAN_MOTION_DOT": 3.6e-07,
        "MEAN_MOTION_DDOT": 0
    },
    {
        "OBJECT_NAME": "COSMOS 1780 [GLONASS]",
        "OBJECT_ID": "1986-071C",
        "EPOCH": "2025-03-02T07:44:59.551008",
        "MEAN_MOTION": 2.1310771,
        "ECCENTRICITY": 0.0003714,
        "INCLINATION": 64.6209,
        "RA_OF_ASC_NODE": 88.3134,
        "ARG_OF_PERICENTER": 324.0824,
        "MEAN_ANOMALY": 120.7558,
        "EPHEMERIS_TYPE": 0,
        "CLASSIFICATION_TYPE": "U",
        "NORAD_CAT_ID": 16963,
        "ELEMENT_SET_NO": 999,
        "REV_AT_EPOCH": 29927,
        "BSTAR": 0,
        "MEAN_MOTION_DOT": 3.6e-07,
        "MEAN_MOTION_DDOT": 0
    },
    {
        "OBJECT_NAME": "COSMOS 1883 [GLONASS]",
        "OBJECT_ID": "1987-079A",
        "EPOCH": "2025-03-02T11:41:32.225856",
        "MEAN_MOTION": 2.13100921,
        "ECCENTRICITY": 0.0005619,
        "INCLINATION": 65.8285,
        "RA_OF_ASC_NODE": 334.5683,
        "ARG_OF_PERICENTER": 255.3866,
        "MEAN_ANOMALY": 225.6518,
        "EPHEMERIS_TYPE": 0,
        "CLASSIFICATION_TYPE": "U",
        "NORAD_CAT_ID": 18355,
        "ELEMENT_SET_NO": 999,
        "REV_AT_EPOCH": 29148,
        "BSTAR": 0,
        "MEAN_MOTION_DOT": -5.5e-07,
        "MEAN_MOTION_DDOT": 0
    },
    {
        "OBJECT_NAME": "COSMOS 1884 [GLONASS]",
        "OBJECT_ID": "1987-079B",
        "EPOCH": "2025-02-28T12:31:21.857664",
        "MEAN_MOTION": 2.13102566,
        "ECCENTRICITY": 0.0019022,
        "INCLINATION": 65.8552,
        "RA_OF_ASC_NODE": 334.9684,
        "ARG_OF_PERICENTER": 208.4757,
        "MEAN_ANOMALY": 280.229,
        "EPHEMERIS_TYPE": 0,
        "CLASSIFICATION_TYPE": "U",
        "NORAD_CAT_ID": 18356,
        "ELEMENT_SET_NO": 999,
        "REV_AT_EPOCH": 29157,
        "BSTAR": 0,
        "MEAN_MOTION_DOT": -4.8e-07,
        "MEAN_MOTION_DDOT": 0
    }
]