16396,COSMOS 1710 [GLONASS],1985,675.73,-1.0,-,66.25,Inactive,0,MEO,Kazakhstan,Russia/USSR,Unknown,Unknown,Unknown,1 16396U 85118A   25056.36963234 -.00000057  00000+0  00000+0 0  9993,2 16396  66.2496 339.9970 0011950 207.8138 345.9312  2.13102890304960,2.1310289,0.001195,MEO
16397,COSMOS 1711 [GLONASS],1985,675.73,-1.0,-,66.26,Inactive,0,MEO,Kazakhstan,Russia/USSR,Unknown,Unknown,Unknown,1 16397U 85118B   25062.38066207 -.00000064  00000+0  00000+0 0  9995,2 16397  66.2627 339.9998 0008324 192.2890 266.7776  2.13101476304727,2.13101476,0.0008324,MEO
16398,COSMOS 1712 [GLONASS],1985,676.31,-1.0,-,66.26,Inactive,0,MEO,Kazakhstan,Russia/USSR,Unknown,Unknown,Unknown,1 16398U 85118C   25058.28113751 -.00000054  00000+0  00000+0 0  9996,2 16398  66.2574 340.7057 0011047  12.2871 134.1273  2.12919819303930,2.12919819,0.0011047,MEO
16961,COSMOS 1778 [GLONASS],1986,675.73,-1.0,-,64.63,Inactive,0,MEO,Kazakhstan,Russia/USSR,Unknown,Unknown,Unknown,1 16961U 86071A   25062.33371588  .00000026  00000+0  00000+0 0  9994,2 16961  64.6293  88.4939 0005104 235.1661 200.2748  2.13102144299348,2.13102144,0.0005104,MEO
16962,COSMOS 1779 [GLONASS],1986,675.73,-1.0,-,64.63,Inactive,0,MEO,Kazakhstan,Russia/USSR,Unknown,Unknown,Unknown,1 16962U 86071B   25061.34608519  .00000036  00000+0  00000+0 0  9993,2 16962  64.6319  88.5998 0012234  38.9547  49.1747  2.13102820299191,2.1310282,0.0012234,MEO
16963,COSMOS 1780 [GLONASS],1986,675.71,-1.0,-,64.62,Inactive,0,MEO,Kazakhstan,Russia/USSR,Unknown,Unknown,Unknown,1 16963U 86071C   25061.32291147  .00000036  00000+0  00000+0 0  9997,2 16963  64.6209  88.3134 0003714 324.0824 120.7558  2.13107710299278,2.1310771,0.0003714,MEO
18355,COSMOS 1883 [GLONASS],1987,675.74,-1.0,-,65.83,Inactive,0,MEO,Kazakhstan,Russia/USSR,Unknown,Unknown,Unknown,1 18355U 87079A   25061.48717854 -.00000055  00000+0  00000+0 0  9990,2 18355  65.8285 334.5683 0005619 255.3866 225.6518  2.13100921291488,2.13100921,0.0005619,MEO
18356,COSMOS 1884 [GLONASS],1987,675.73,-1.0,-,65.86,Inactive,0,MEO,Kazakhstan,Russia/USSR,Unknown,Unknown,Unknown,1 18356U 87079B   25059.52178076 -.00000048  00000+0  00000+0 0  9992,2 18356  65.8552 334.9684 0019022 208.4757 280.2290  2.13102566291573,2.13102566,0.0019022,MEO
15260,COSMOS 1594 [GLONASS],1984,677.21,-1.0,-,64.53,Inactive,0,MEO,Kazakhstan,Russia/USSR,Unknown,Unknown,Unknown,1 15260U 84095B   25062.26049012  .00000028  00000+0  00000+0 0  9997,2 15260  64.5299  90.6794 0004839 196.8194 230.9752  2.12636982314474,2.12636982,0.0004839,MEO
15261,COSMOS 1595 [GLONASS],1984,675.73,-1.0,-,64.54,Inactive,0,MEO,Kazakhstan,Russia/USSR,Unknown,Unknown,Unknown,1 15261U 84095C   25061.61369249  .00000032  00000+0  00000+0 0  9998,2 15261  64.5377  87.4481 0048369 218.2982 326.7233  2.13101798289471,2.13101798,0.0048369,MEO
15697,COSMOS 1650 [GLONASS],1985,675.73,-1.0,-,64.63,Inactive,0,MEO,Kazakhstan,Russia/USSR,Unknown,Unknown,Unknown,1 15697U 85037A   25062.31154432  .00000027  00000+0  00000+0 0  9996,2 15697  64.6259  89.4413 0032477  26.6134  51.4825  2.13102180286319,2.1310218,0.0032477,MEO
15698,COSMOS 1651 [GLONASS],1985,675.67,-1.0,-,64.62,Inactive,0,MEO,Kazakhstan,Russia/USSR,Unknown,Unknown,Unknown,1 15698U 85037B   25062.33261962  .00000027  00000+0  00000+0 0  9996,2 15698  64.6151  89.0021 0014600  21.6142  61.1481  2.13123057309750,2.13123057,0.00146,MEO
15699,COSMOS 1652 [GLONASS],1985,675.84,-1.0,-,64.61,Inactive,0,MEO,Kazakhstan,Russia/USSR,Unknown,Unknown,Unknown,1 15699U 85037C   25062.37889272  .00000026  00000+0  00000+0 0  9990,2 15699  64.6099  89.2850 0017995  24.1752  10.8387  2.13067318309639,2.13067318,0.0017995,MEO
